[{"OBJECT_NAME":"LAPAN-A3","OBJECT_ID":"2016-040E","EPOCH":"2026-03-09T23:01:57.724896","MEAN_MOTION":15.3238951,"ECCENTRICITY":0.00109839,"INCLINATION":97.1488,"RA_OF_ASC_NODE":68.4254,"ARG_OF_PERICENTER":22.062,"MEAN_ANOMALY":338.1093,"EPHEMERIS_TYPE":0,"CLASSIFICATION_TYPE":"U","NORAD_CAT_ID":41603,"ELEMENT_SET_NO":999,"REV_AT_EPOCH":53961,"BSTAR":0.00017567445,"MEAN_MOTION_DOT":5.428e-5,"MEAN_MOTION_DDOT":0},{"OBJECT_NAME":"STARLINK-30606","OBJECT_ID":"2023-161N","EPOCH":"2026-03-09T12:10:17.553504","MEAN_MOTION":15.30181359,"ECCENTRICITY":0.00013009,"INCLINATION":53.1624,"RA_OF_ASC_NODE":166.3794,"ARG_OF_PERICENTER":71.7277,"MEAN_ANOMALY":288.3865,"EPHEMERIS_TYPE":0,"CLASSIFICATION_TYPE":"U","NORAD_CAT_ID":58109,"ELEMENT_SET_NO":999,"REV_AT_EPOCH":13439,"BSTAR":-3.1482733e-5,"MEAN_MOTION_DOT":-1.291e-5,"MEAN_MOTION_DDOT":0}]
